{"type": "FeatureCollection", "features": [{"type": "Feature", "properties": {"norad_id": 28890, "name": "BEIJING 1", "group": "dmc", "lat": 68.90019454831588, "lon": 90.23866898334352, "alt_km": 673.0563970429484, "timestamp": "2025-12-10T20:49:52.227431+00:00", "meta": {"OBJECT_NAME": "BEIJING 1", "OBJECT_ID": "2005-043A", "EPOCH": "2025-12-10T15:35:11.957280", "MEAN_MOTION": 14.63362697, "ECCENTRICITY": 0.00151909, "INCLINATION": 98.2657, "RA_OF_ASC_NODE": 112.1514, "ARG_OF_PERICENTER": 147.4239, "MEAN_ANOMALY": 212.7903, "EPHEMERIS_TYPE": 0, "CLASSIFICATION_TYPE": "U", "NORAD_CAT_ID": 28890, "ELEMENT_SET_NO": 999, "REV_AT_EPOCH": 7307, "BSTAR": 0.00012599333, "MEAN_MOTION_DOT": 6.03e-06, "MEAN_MOTION_DDOT": 0}, "tle": {"line1": "1 28890U 05043A   25344.64944395  .00000603  00000+0  12599-3 0  9998", "line2": "2 28890  98.2657 112.1514 0015190 147.4239 212.7903 14.63362697 73075"}}, "geometry": {"type": "Point", "coordinates": [90.23866898334352, 68.90019454831588]}}, {"type": "Feature", "properties": {"norad_id": 33320, "name": "HUANJING 1A (HJ-1A)", "group": "dmc", "lat": -36.496045503657285, "lon": -21.044894755679895, "alt_km": 621.8512402610677, "timestamp": "2025-12-10T20:49:52.227454+00:00", "meta": {"OBJECT_NAME": "HUANJING 1A (HJ-1A)", "OBJECT_ID": "2008-041A", "EPOCH": "2025-12-10T14:31:15.950208", "MEAN_MOTION": 14.83383381, "ECCENTRICITY": 0.00203198, "INCLINATION": 97.6545, "RA_OF_ASC_NODE": 332.9927, "ARG_OF_PERICENTER": 41.2682, "MEAN_ANOMALY": 319.0064, "EPHEMERIS_TYPE": 0, "CLASSIFICATION_TYPE": "U", "NORAD_CAT_ID": 33320, "ELEMENT_SET_NO": 999, "REV_AT_EPOCH": 93044, "BSTAR": 0.00028518023, "MEAN_MOTION_DOT": 2.296e-05, "MEAN_MOTION_DDOT": 0}, "tle": {"line1": "1 33320U 08041A   25344.60504572  .00002296  00000+0  28518-3 0  9996", "line2": "2 33320  97.6545 332.9927 0020319  41.2682 319.0064 14.83383381930447"}}, "geometry": {"type": "Point", "coordinates": [-21.044894755679895, -36.496045503657285]}}, {"type": "Feature", "properties": {"norad_id": 33321, "name": "HUANJING 1B (HJ-1B)", "group": "dmc", "lat": -8.873654720833335, "lon": 155.74528477620623, "alt_km": 632.4743519825042, "timestamp": "2025-12-10T20:49:52.227469+00:00", "meta": {"OBJECT_NAME": "HUANJING 1B (HJ-1B)", "OBJECT_ID": "2008-041B", "EPOCH": "2025-12-10T15:07:38.760672", "MEAN_MOTION": 14.82812326, "ECCENTRICITY": 0.00382813, "INCLINATION": 97.6402, "RA_OF_ASC_NODE": 336.719, "ARG_OF_PERICENTER": 82.2476, "MEAN_ANOMALY": 278.3082, "EPHEMERIS_TYPE": 0, "CLASSIFICATION_TYPE": "U", "NORAD_CAT_ID": 33321, "ELEMENT_SET_NO": 999, "REV_AT_EPOCH": 93046, "BSTAR": 0.00023071337, "MEAN_MOTION_DOT": 1.839e-05, "MEAN_MOTION_DDOT": 0}, "tle": {"line1": "1 33321U 08041B   25344.63030973  .00001839  00000+0  23071-3 0  9990", "line2": "2 33321  97.6402 336.7190 0038281  82.2476 278.3082 14.82812326930461"}}, "geometry": {"type": "Point", "coordinates": [155.74528477620623, -8.873654720833335]}}, {"type": "Feature", "properties": {"norad_id": 33446, "name": "YAOGAN-4", "group": "dmc", "lat": 76.41441546416901, "lon": 130.14936144250905, "alt_km": 620.0300842548013, "timestamp": "2025-12-10T20:49:52.227481+00:00", "meta": {"OBJECT_NAME": "YAOGAN-4", "OBJECT_ID": "2008-061A", "EPOCH": "2025-12-10T09:02:22.074432", "MEAN_MOTION": 14.82671071, "ECCENTRICITY": 0.00137719, "INCLINATION": 97.918, "RA_OF_ASC_NODE": 274.4991, "ARG_OF_PERICENTER": 331.4072, "MEAN_ANOMALY": 28.6385, "EPHEMERIS_TYPE": 0, "CLASSIFICATION_TYPE": "U", "NORAD_CAT_ID": 33446, "ELEMENT_SET_NO": 999, "REV_AT_EPOCH": 91768, "BSTAR": 0.00031259873, "MEAN_MOTION_DOT": 2.471e-05, "MEAN_MOTION_DDOT": 0}, "tle": {"line1": "1 33446U 08061A   25344.37664438  .00002471  00000+0  31260-3 0  9992", "line2": "2 33446  97.9180 274.4991 0013771 331.4072  28.6385 14.82671071917681"}}, "geometry": {"type": "Point", "coordinates": [130.14936144250905, 76.41441546416901]}}, {"type": "Feature", "properties": {"norad_id": 35681, "name": "DEIMOS-1", "group": "dmc", "lat": -75.13851792505982, "lon": 176.27897387687702, "alt_km": 654.4422553141794, "timestamp": "2025-12-10T20:49:52.227492+00:00", "meta": {"OBJECT_NAME": "DEIMOS-1", "OBJECT_ID": "2009-041A", "EPOCH": "2025-12-10T14:40:06.364128", "MEAN_MOTION": 14.7494638, "ECCENTRICITY": 0.00027311, "INCLINATION": 97.7149, "RA_OF_ASC_NODE": 145.3133, "ARG_OF_PERICENTER": 82.6891, "MEAN_ANOMALY": 277.4629, "EPHEMERIS_TYPE": 0, "CLASSIFICATION_TYPE": "U", "NORAD_CAT_ID": 35681, "ELEMENT_SET_NO": 999, "REV_AT_EPOCH": 87908, "BSTAR": 0.00014020242, "MEAN_MOTION_DOT": 8.95e-06, "MEAN_MOTION_DDOT": 0}, "tle": {"line1": "1 35681U 09041A   25344.61118477  .00000895  00000+0  14020-3 0  9991", "line2": "2 35681  97.7149 145.3133 0002731  82.6891 277.4629 14.74946380879084"}}, "geometry": {"type": "Point", "coordinates": [176.27897387687702, -75.13851792505982]}}, {"type": "Feature", "properties": {"norad_id": 35683, "name": "UK-DMC 2", "group": "dmc", "lat": -65.50680822818533, "lon": 137.46588339540457, "alt_km": 651.3704103353448, "timestamp": "2025-12-10T20:49:52.227503+00:00", "meta": {"OBJECT_NAME": "UK-DMC 2", "OBJECT_ID": "2009-041C", "EPOCH": "2025-12-10T14:37:24.510144", "MEAN_MOTION": 14.75614574, "ECCENTRICITY": 0.00014046, "INCLINATION": 97.8563, "RA_OF_ASC_NODE": 119.5721, "ARG_OF_PERICENTER": 96.0998, "MEAN_ANOMALY": 264.0371, "EPHEMERIS_TYPE": 0, "CLASSIFICATION_TYPE": "U", "NORAD_CAT_ID": 35683, "ELEMENT_SET_NO": 999, "REV_AT_EPOCH": 87875, "BSTAR": 0.00027118182, "MEAN_MOTION_DOT": 1.801e-05, "MEAN_MOTION_DDOT": 0}, "tle": {"line1": "1 35683U 09041C   25344.60931146  .00001801  00000+0  27118-3 0  9998", "line2": "2 35683  97.8563 119.5721 0001404  96.0998 264.0371 14.75614574878753"}}, "geometry": {"type": "Point", "coordinates": [137.46588339540457, -65.50680822818533]}}, {"type": "Feature", "properties": {"norad_id": 40715, "name": "DMC3-FM1", "group": "dmc", "lat": -80.13991527133483, "lon": -97.04439658248141, "alt_km": 617.5637745897102, "timestamp": "2025-12-10T20:49:52.227514+00:00", "meta": {"OBJECT_NAME": "DMC3-FM1", "OBJECT_ID": "2015-032A", "EPOCH": "2025-12-10T14:44:27.196224", "MEAN_MOTION": 14.8543547, "ECCENTRICITY": 0.00048016, "INCLINATION": 97.669, "RA_OF_ASC_NODE": 211.8839, "ARG_OF_PERICENTER": 330.2859, "MEAN_ANOMALY": 29.8083, "EPHEMERIS_TYPE": 0, "CLASSIFICATION_TYPE": "U", "NORAD_CAT_ID": 40715, "ELEMENT_SET_NO": 999, "REV_AT_EPOCH": 56191, "BSTAR": 0.000151987, "MEAN_MOTION_DOT": 1.259e-05, "MEAN_MOTION_DDOT": 0}, "tle": {"line1": "1 40715U 15032A   25344.61420366  .00001259  00000+0  15199-3 0  9998", "line2": "2 40715  97.6690 211.8839 0004801 330.2859  29.8083 14.85435470561914"}}, "geometry": {"type": "Point", "coordinates": [-97.04439658248141, -80.13991527133483]}}, {"type": "Feature", "properties": {"norad_id": 40716, "name": "DMC3-FM2", "group": "dmc", "lat": 23.647397398728717, "lon": 36.95592786065819, "alt_km": 615.6059214816123, "timestamp": "2025-12-10T20:49:52.227524+00:00", "meta": {"OBJECT_NAME": "DMC3-FM2", "OBJECT_ID": "2015-032B", "EPOCH": "2025-12-10T15:16:51.165984", "MEAN_MOTION": 14.85433417, "ECCENTRICITY": 0.00055151, "INCLINATION": 97.6746, "RA_OF_ASC_NODE": 213.348, "ARG_OF_PERICENTER": 334.1706, "MEAN_ANOMALY": 25.9233, "EPHEMERIS_TYPE": 0, "CLASSIFICATION_TYPE": "U", "NORAD_CAT_ID": 40716, "ELEMENT_SET_NO": 999, "REV_AT_EPOCH": 56191, "BSTAR": 6.0580193e-05, "MEAN_MOTION_DOT": 4.71e-06, "MEAN_MOTION_DDOT": 0}, "tle": {"line1": "1 40716U 15032B   25344.63670331  .00000471  00000+0  60580-4 0  9990", "line2": "2 40716  97.6746 213.3480 0005515 334.1706  25.9233 14.85433417561916"}}, "geometry": {"type": "Point", "coordinates": [36.95592786065819, 23.647397398728717]}}, {"type": "Feature", "properties": {"norad_id": 40717, "name": "DMC3-FM3", "group": "dmc", "lat": 40.06019164487611, "lon": -151.3130306341946, "alt_km": 607.7716578162681, "timestamp": "2025-12-10T20:49:52.227534+00:00", "meta": {"OBJECT_NAME": "DMC3-FM3", "OBJECT_ID": "2015-032C", "EPOCH": "2025-12-10T14:10:58.107648", "MEAN_MOTION": 14.85423979, "ECCENTRICITY": 0.00048276, "INCLINATION": 97.68, "RA_OF_ASC_NODE": 214.9352, "ARG_OF_PERICENTER": 335.9818, "MEAN_ANOMALY": 24.1172, "EPHEMERIS_TYPE": 0, "CLASSIFICATION_TYPE": "U", "NORAD_CAT_ID": 40717, "ELEMENT_SET_NO": 999, "REV_AT_EPOCH": 56191, "BSTAR": 0.00010192184, "MEAN_MOTION_DOT": 8.27e-06, "MEAN_MOTION_DDOT": 0}, "tle": {"line1": "1 40717U 15032C   25344.59095032  .00000827  00000+0  10192-3 0  9993", "line2": "2 40717  97.6800 214.9352 0004827 335.9818  24.1172 14.85423979561916"}}, "geometry": {"type": "Point", "coordinates": [-151.3130306341946, 40.06019164487611]}}]}